STARLINK-1782           
1 47548U 21009A   22286.47402864  .00001179  00000+0  98004-4 0  9997
2 47548  53.0556 192.6422 0001342  84.3511 275.7631 15.06400642 93553
STARLINK-1806           
1 47549U 21009B   22287.13380427 -.00000970  00000+0 -46261-4 0  9990
2 47549  53.0543 189.6723 0001616 102.9050 257.2119 15.06397746 94264
STARLINK-1909           
1 47550U 21009C   22286.41597690  .00000889  00000+0  78566-4 0  9994
2 47550  53.0545 182.8795 0001248  93.1491 266.9641 15.06388507 93680
STARLINK-1938           
1 47551U 21009D   22287.14026224  .00004425  00000+0  31580-3 0  9990
2 47551  53.0540 199.6540 0001431  95.0228 265.0925 15.06400363 94112
STARLINK-1940           
1 47552U 21009E   22286.48140037  .00001471  00000+0  11767-3 0  9999
2 47552  53.0542 192.6083 0001543 107.8061 252.3096 15.06393291 93557
STARLINK-1953           
1 47554U 21009G   22287.01769736  .00002399  00000+0  17991-3 0  9999
2 47554  53.0543 210.1827 0001011 110.4286 249.6812 15.06390459 93964
STARLINK-1954           
1 47555U 21009H   22286.99283163  .00008020  00000+0  55739-3 0  9990
2 47555  53.0556 200.2937 0001197 107.8837 252.2283 15.06352095 94099
STARLINK-1955           
1 47556U 21009J   22287.22687678  .00001725  00000+0  13466-3 0  9993
2 47556  53.0529 219.2595 0001324  86.1534 273.9606 15.06402145 93848
STARLINK-1956           
1 47557U 21009K   22286.52655360  .00000746  00000+0  68975-4 0  9997
2 47557  53.0542 222.3838 0001058  79.7821 280.3287 15.06391218 93148
STARLINK-1957           
1 47558U 21009L   22286.17546001  .00001331  00000+0  10823-3 0  9999
2 47558  53.0555 193.9818 0001445  73.8453 286.2695 15.06399437 94106
STARLINK-1958           
1 47559U 21009M   22287.13473265  .00004457  00000+0  31788-3 0  9993
2 47559  53.0545 179.6759 0001423  95.9077 264.2074 15.06406800 94407
STARLINK-1959           
1 47560U 21009N   22287.12641973  .00004564  00000+0  32511-3 0  9991
2 47560  53.0542 179.6796 0001588 103.8347 256.2819 15.06398022 94402
STARLINK-1960           
1 47561U 21009P   22286.84908068  .00004952  00000+0  35116-3 0  9996
2 47561  53.0527 200.9493 0001756 131.3085 228.8055 15.06393726 93479
STARLINK-1961           
1 47562U 21009Q   22287.19555238  .00003083  00000+0  22574-3 0  9991
2 47562  53.0539 199.3940 0001323  92.7803 267.3337 15.06402863 94126
STARLINK-1962           
1 47563U 21009R   22286.75323452  .00005179  00000+0  36630-3 0  9990
2 47563  53.0546 201.3882 0001297  98.8886 261.2249 15.06403723 93458
STARLINK-1963           
1 47564U 21009S   22286.15703705 -.00001448  00000+0 -78292-4 0  9996
2 47564  53.0551 194.0632 0001597 109.2763 250.8399 15.06407230 93503
STARLINK-1964           
1 47565U 21009T   22287.01586724  .00002777  00000+0  20535-3 0  9993
2 47565  53.0543 190.2071 0001653  64.8444 295.2716 15.06386905 94237
STARLINK-1965           
1 47566U 21009U   22287.00940476  .00003718  00000+0  26841-3 0  9993
2 47566  53.0554 180.2367 0000857 118.6625 241.4450 15.06392178 94384
STARLINK-1966           
1 47567U 21009V   22286.64818752  .00006931  00000+0  48369-3 0  9993
2 47567  53.0540 221.8544 0001280  95.9539 264.1596 15.06405160 93154
STARLINK-1967           
1 47568U 21009W   22287.20476068  .00002347  00000+0  17640-3 0  9992
2 47568  53.0556 219.3593 0001530  76.7468 283.3691 15.06402035 93847
STARLINK-1968           
1 47569U 21009X   22286.92003518  .00038312  00000+0  28701-3 0  9998
2 47569  53.0546  84.0033 0004433 271.1324  88.9186 15.72276906 95737
STARLINK-1969           
1 47570U 21009Y   22287.13105331  .00001646  00000+0  12940-3 0  9998
2 47570  53.0557 179.6770 0001353 112.8172 247.2960 15.06392321 94400
STARLINK-1970           
1 47571U 21009Z   22287.00848251  .00002139  00000+0  16243-3 0  9998
2 47571  53.0566 190.2371 0001537  99.2591 260.8572 15.06405551 94235
STARLINK-1971           
1 47572U 21009AA  22287.12275207  .00000973  00000+0  84219-4 0  9990
2 47572  53.0549 189.7260 0001438  91.5722 268.5432 15.06402130 94250
STARLINK-1975           
1 47573U 21009AB  22287.16698125  .00002195  00000+0  16620-3 0  9991
2 47573  53.0542 189.5183 0001406  99.0656 261.0492 15.06399353 94256
STARLINK-1976           
1 47574U 21009AC  22286.51917435  .00001405  00000+0  11322-3 0  9995
2 47574  53.0555 222.4297 0001087  73.1684 286.9424 15.06397892 93136
STARLINK-1977           
1 47575U 21009AD  22287.17158173  .00000999  00000+0  85926-4 0  9994
2 47575  53.0561 219.5050 0001322  78.5982 281.5155 15.06401623 93837
STARLINK-1978           
1 47576U 21009AE  22286.80668724  .00003661  00000+0  26459-3 0  9996
2 47576  53.0545 181.1517 0001330 104.5767 255.5370 15.06396256 93747
STARLINK-1979           
1 47577U 21009AF  22287.17942765  .00002757  00000+0  20397-3 0  9998
2 47577  53.0553 194.4713 0001340 103.9664 256.1474 15.06390284 94199
STARLINK-1980           
1 47578U 21009AG  22286.50995978  .00001906  00000+0  14678-3 0  9999
2 47578  53.0546 202.4806 0001249 117.9812 242.1304 15.06399687 93410
STARLINK-1981           
1 47579U 21009AH  22287.15591989 -.00000091  00000+0  12791-4 0  9996
2 47579  53.0546 189.5792 0001357  79.2616 280.8526 15.06392151 94259
STARLINK-1982           
1 47580U 21009AJ  22287.04442889  .00002278  00000+0  17179-3 0  9992
2 47580  53.0538 200.0728 0001389  81.8915 278.2232 15.06396931 94093
STARLINK-1984           
1 47581U 21009AK  22287.09050516  .00002451  00000+0  18341-3 0  9995
2 47581  53.0543 179.8667 0001148 110.6571 249.4541 15.06395313 94385
STARLINK-1986           
1 47582U 21009AL  22287.21029986  .00002465  00000+0  18439-3 0  9990
2 47582  53.0542 199.3382 0001322  77.9347 282.1790 15.06390546 94121
STARLINK-1987           
1 47583U 21009AM  22287.18818358  .00002361  00000+0  17739-3 0  9993
2 47583  53.0555 199.4281 0001330  96.6720 263.4421 15.06393747 94137
STARLINK-1989           
1 47585U 21009AP  22287.14763451  .00005301  00000+0  37442-3 0  9994
2 47585  53.0526 199.6156 0001452  82.9369 277.1785 15.06404679 94112
STARLINK-1990           
1 47586U 21009AQ  22286.53393264  .00002941  00000+0  21628-3 0  9994
2 47586  53.0547 222.3673 0001536  65.3205 294.7943 15.06391578 93147
STARLINK-1991           
1 47587U 21009AR  22287.06008545  .00003328  00000+0  24216-3 0  9995
2 47587  53.0551 190.0130 0001390  98.7406 261.3741 15.06403112 94249
STARLINK-1993           
1 47588U 21009AS  22286.85276332  .00005654  00000+0  39809-3 0  9991
2 47588  53.0540 200.9224 0001322  98.6501 261.4637 15.06407947 93472
STARLINK-1994           
1 47589U 21009AT  22286.80483293  .00004358  00000+0  31119-3 0  9999
2 47589  53.0537 201.1533 0001282  88.6993 271.4142 15.06408386 93463
STARLINK-1995           
1 47590U 21009AU  22287.12735252  .00002081  00000+0  15855-3 0  9992
2 47590  53.0544 219.7120 0001434  93.1274 266.9879 15.06400452 93835
STARLINK-1996           
1 47591U 21009AV  22287.06654642  .00006929  00000+0  48357-3 0  9997
2 47591  53.0535 199.9786 0001354  88.8460 271.2684 15.06402831 94109
STARLINK-1997           
1 47592U 21009AW  22287.16422437  .00005759  00000+0  40513-3 0  9990
2 47592  53.0528 219.5402 0001545  92.4839 267.6327 15.06405253 93832
STARLINK-1998           
1 47593U 21009AX  22286.53760404  .00002599  00000+0  19331-3 0  9993
2 47593  53.0548 222.3360 0001366  74.7393 285.3747 15.06396031 93149
STARLINK-1999           
1 47594U 21009AY  22287.10155403  .00002042  00000+0  15591-3 0  9992
2 47594  53.0547 219.8137 0001384  95.3700 264.7447 15.06399337 93828
STARLINK-2000           
1 47595U 21009AZ  22287.15315698  .00004568  00000+0  32524-3 0  9992
2 47595  53.0531 219.5713 0001388  79.7305 280.3840 15.06411582 93839
STARLINK-2001           
1 47596U 21009BA  22287.09049702  .00000565  00000+0  56849-4 0  9996
2 47596  53.0547 219.8642 0001355  97.5967 262.5176 15.06387745 93823
STARLINK-2002           
1 47597U 21009BB  22287.21581272 -.00000966  00000+0 -45950-4 0  9992
2 47597  53.0541 219.3043 0001364  80.2525 279.8618 15.06403174 93846
STARLINK-2003           
1 47598U 21009BC  22287.15961146  .00004360  00000+0  31141-3 0  9994
2 47598  53.0538 189.5596 0001533 113.7509 246.3641 15.06404603 94277
STARLINK-2004           
1 47599U 21009BD  22286.41965799  .00001540  00000+0  12233-3 0  9999
2 47599  53.0543 182.8824 0001462  83.9930 276.1226 15.06387389 94294
STARLINK-2005           
1 47600U 21009BE  22286.44546152  .00002105  00000+0  16017-3 0  9995
2 47600  53.0534 182.7271 0001248 103.3684 256.7444 15.06390710 93698
STARLINK-2006           
1 47601U 21009BF  22287.08680759  .00000748  00000+0  69113-4 0  9996
2 47601  53.0528 179.8879 0001412  98.9711 261.1438 15.06396588 94396
STARLINK-2007           
1 47602U 21009BG  22287.10800677  .00001948  00000+0  14968-3 0  9993
2 47602  53.0548 189.7989 0001539 105.0894 255.0266 15.06394579 94246
STARLINK-2008           
1 47603U 21009BH  22287.18633534  .00002905  00000+0  21383-3 0  9991
2 47603  53.0527 219.4419 0001430  76.6335 283.4813 15.06398723 93838
STARLINK-2021           
1 47604U 21009BJ  22287.11538243  .00003870  00000+0  27856-3 0  9999
2 47604  53.0553 189.7584 0001432  90.2942 269.8211 15.06398367 94259
STARLINK-2024           
1 47606U 21009BL  22287.11907043  .00002349  00000+0  17660-3 0  9991
2 47606  53.0540 189.7398 0001350  96.8454 263.2688 15.06392880 94259
STARLINK-2025           
1 47607U 21009BM  22287.03060315 -.00000362  00000+0 -53787-5 0  9992
2 47607  53.0548 190.1445 0001461  76.5366 283.5786 15.06394576 94233
